{"type": "FeatureCollection", "features": [{"type": "Feature", "properties": {"NAME_EN": "Koshi", "PROVINCE": 1}, "geometry": {"type": "Polygon", "coordinates": [[[86.9041, 26.4884], [86.9333, 26.5336], [86.9924, 26.5724], [86.9788, 26.6252], [87.0128, 26.6701], [87.0143, 26.6893], [87.0078, 26.709], [86.9845, 26.7035], [86.9661, 26.736], [86.9325, 26.7407], [86.9217, 26.7666], [86.885, 26.7121], [86.842, 26.6906], [86.8378, 26.7096], [86.8234, 26.7143], [86.754, 26.6885], [86.7384, 26.7119], [86.7059, 26.707], [86.6848, 26.6881], [86.6648, 26.7043], [86.6567, 26.6917], [86.6342, 26.6986], [86.6111, 26.6894], [86.5833, 26.7017], [86.5739, 26.7396], [86.5533, 26.7471], [86.5779, 26.7843], [86.5301, 26.7912], [86.5533, 26.8146], [86.552, 26.8352], [86.5196, 26.8316], [86.4784, 26.8877], [86.3965, 26.9097], [86.3827, 26.9082], [86.3653, 26.8724], [86.2869, 26.8867], [86.2469, 26.8638], [86.156, 26.9188], [86.1575, 26.93], [86.221, 26.8885], [86.2245, 26.904], [86.2565, 26.9118], [86.2835, 26.9492], [86.3537, 26.9651], [86.3657, 26.9816], [86.3792, 27.0346], [86.3458, 27.0683], [86.3624, 27.099], [86.3064, 27.1089], [86.3245, 27.11], [86.3437, 27.1473], [86.3682, 27.1409], [86.3899, 27.1799], [86.3427, 27.2044], [86.341, 27.229], [86.2956, 27.2382], [86.2671, 27.26], [86.2292, 27.2374], [86.2044, 27.2497], [86.2402, 27.2883], [86.2157, 27.3339], [86.2221, 27.3825], [86.2641, 27.4565], [86.3549, 27.5249], [86.3763, 27.5681], [86.4348, 27.6103], [86.4925, 27.6137], [86.538, 27.6703], [86.541, 27.7029], [86.5728, 27.7546], [86.5671, 27.804], [86.5404, 27.8149], [86.5547, 27.907], [86.5478, 27.9305], [86.5217, 27.9404], [86.5128, 27.9848], [86.5334, 28.0466], [86.5653, 28.069], [86.5623, 28.1072], [86.6025, 28.1019], [86.6084, 28.076], [86.6348, 28.0707], [86.6891, 28.1087], [86.7383, 28.1038], [86.7649, 28.0747], [86.7471, 28.0513], [86.7529, 28.0379], [86.7729, 28.038], [86.7901, 28.0189], [86.8674, 28.0253], [86.8899, 27.997], [86.9254, 27.9879], [86.9335, 27.9626], [87.0391, 27.9504], [87.0534, 27.9266], [87.0786, 27.9152], [87.0888, 27.8827], [87.1075, 27.874], [87.1159, 27.8404], [87.1683, 27.8217], [87.2258, 27.8198], [87.2612, 27.851], [87.3041, 27.8432], [87.3177, 27.8265], [87.3552, 27.8275], [87.4192, 27.8606], [87.4312, 27.8417], [87.4036, 27.8341], [87.4498, 27.8224], [87.4901, 27.8465], [87.5354, 27.843], [87.5624, 27.8671], [87.5864, 27.8529], [87.5911, 27.8195], [87.6109, 27.8109], [87.6358, 27.8344], [87.6651, 27.8365], [87.6655, 27.8069], [87.7254, 27.8053], [87.7787, 27.8659], [87.7841, 27.8985], [87.8252, 27.921], [87.8318, 27.9529], [87.8565, 27.9484], [87.8659, 27.9108], [87.9306, 27.918], [87.9833, 27.8877], [88.0301, 27.906], [88.0645, 27.8864], [88.0832, 27.8959], [88.0958, 27.8673], [88.1351, 27.8817], [88.1957, 27.8546], [88.2013, 27.8375], [88.1732, 27.8207], [88.1973, 27.7909], [88.182, 27.7765], [88.1786, 27.7471], [88.1563, 27.7366], [88.1446, 27.6657], [88.1198, 27.6451], [88.1137, 27.6107], [88.0851, 27.5903], [88.059, 27.5352], [88.0609, 27.5112], [88.0446, 27.4985], [88.044, 27.4786], [88.0801, 27.43], [88.0506, 27.413], [88.0423, 27.3744], [88.0665, 27.3363], [88.0317, 27.2863], [88.0309, 27.2501], [88.0122, 27.2158], [88.0184, 27.1709], [87.9889, 27.1238], [87.9909, 27.1064], [88.0211, 27.0878], [88.0163, 27.0738], [88.0376, 27.0367], [88.0774, 27.0355], [88.0925, 27.0044], [88.1355, 26.9849], [88.1205, 26.9506], [88.146, 26.9211], [88.1364, 26.8987], [88.1723, 26.8686], [88.1675, 26.8378], [88.188, 26.7717], [88.1605, 26.6367], [88.1299, 26.6014], [88.1302, 26.5738], [88.1054, 26.561], [88.1115, 26.5453], [88.0905, 26.5079], [88.1057, 26.4896], [88.1067, 26.4735], [88.0919, 26.4632], [88.0958, 26.4397], [88.0692, 26.4079], [88.0323, 26.3886], [88.0299, 26.365], [87.9956, 26.3662], [87.9916, 26.3927], [87.9272, 26.418], [87.916, 26.4327], [87.9251, 26.445], [87.8987, 26.4489], [87.9096, 26.4579], [87.8881, 26.4868], [87.858, 26.4634], [87.8487, 26.4366], [87.7889, 26.4693], [87.7646, 26.4104], [87.7391, 26.4177], [87.7336, 26.4079], [87.6777, 26.4355], [87.6783, 26.4159], [87.6503, 26.406], [87.6518, 26.3936], [87.6072, 26.3813], [87.5871, 26.3822], [87.5874, 26.3929], [87.5475, 26.4186], [87.4666, 26.4405], [87.3687, 26.4082], [87.3583, 26.3611], [87.341, 26.3478], [87.3123, 26.3716], [87.2659, 26.374], [87.2662, 26.4055], [87.2563, 26.4112], [87.2288, 26.4138], [87.2207, 26.4039], [87.1859, 26.4143], [87.189, 26.4056], [87.1625, 26.4041], [87.0915, 26.4504], [87.0718, 26.5858], [87.0446, 26.5873], [87.0153, 26.5322], [86.9326, 26.5168], [86.9299, 26.4897], [86.9041, 26.4884]]]}}, {"type": "Feature", "properties": {"NAME_EN": "Madhesh", "PROVINCE": 2}, "geometry": {"type": "Polygon", "coordinates": [[[84.5653, 27.4632], [84.6286, 27.4505], [84.6477, 27.4291], [84.7194, 27.4316], [84.7258, 27.4445], [84.7938, 27.437], [84.8101, 27.416], [84.8337, 27.4177], [84.9015, 27.3746], [84.9723, 27.3552], [84.9945, 27.3653], [85.0045, 27.3529], [85.0871, 27.3609], [85.1039, 27.3202], [85.1774, 27.2497], [85.243, 27.2487], [85.2608, 27.227], [85.3074, 27.2318], [85.3932, 27.2104], [85.3973, 27.1977], [85.4466, 27.187], [85.4529, 27.1684], [85.4726, 27.1619], [85.5009, 27.1758], [85.4895, 27.1546], [85.501, 27.1436], [85.6298, 27.1374], [85.7255, 27.1949], [85.8093, 27.1616], [85.8307, 27.1672], [85.862, 27.1274], [85.8827, 27.1463], [85.9381, 27.1214], [85.9441, 27.0921], [85.9912, 27.0252], [86.1001, 27.0173], [86.1874, 26.9825], [86.2352, 26.9492], [86.2593, 26.9145], [86.2245, 26.904], [86.221, 26.8885], [86.1575, 26.93], [86.156, 26.9188], [86.244, 26.8647], [86.2869, 26.8867], [86.3653, 26.8724], [86.3827, 26.9082], [86.3965, 26.9097], [86.4801, 26.8867], [86.4817, 26.8699], [86.5196, 26.8316], [86.552, 26.8352], [86.5533, 26.8146], [86.5301, 26.7912], [86.5779, 26.7843], [86.5533, 26.7471], [86.5739, 26.7396], [86.5883, 26.6974], [86.6495, 26.6898], [86.6648, 26.7043], [86.6848, 26.6881], [86.7059, 26.707], [86.7384, 26.7119], [86.754, 26.6885], [86.8234, 26.7143], [86.8378, 26.7096], [86.842, 26.6906], [86.885, 26.7121], [86.9217, 26.7666], [86.9325, 26.7407], [86.9661, 26.736], [86.9881, 26.7001], [87.0078, 26.709], [87.013, 26.7007], [87.0128, 26.6701], [86.9788, 26.6252], [86.9924, 26.5724], [86.9236, 26.5231], [86.9164, 26.5017], [86.8916, 26.4861], [86.8941, 26.4623], [86.8334, 26.4391], [86.7663, 26.4594], [86.7374, 26.4237], [86.5703, 26.4965], [86.5418, 26.5385], [86.4973, 26.5424], [86.3294, 26.6195], [86.2511, 26.6152], [86.2173, 26.5885], [86.1967, 26.5934], [86.1923, 26.6147], [86.136, 26.6066], [86.1387, 26.6288], [86.027, 26.6667], [86.0098, 26.654], [85.9566, 26.6494], [85.9456, 26.6128], [85.9307, 26.6161], [85.8491, 26.569], [85.851, 26.6086], [85.8175, 26.6028], [85.8014, 26.6243], [85.7322, 26.6541], [85.7235, 26.6879], [85.7344, 26.7959], [85.7212, 26.8201], [85.6424, 26.8533], [85.6344, 26.8723], [85.588, 26.8489], [85.5753, 26.8611], [85.5657, 26.841], [85.4537, 26.7815], [85.4077, 26.7913], [85.3343, 26.7415], [85.2118, 26.758], [85.1768, 26.8097], [85.1912, 26.8313], [85.1899, 26.8701], [85.1112, 26.8725], [85.0629, 26.8498], [85.0627, 26.8583], [85.0574, 26.8492], [85.022, 26.8549], [85.0289, 26.8749], [85.0582, 26.8854], [85.0053, 26.8947], [84.9927, 26.9033], [84.9995, 26.9122], [84.9717, 26.9156], [84.9783, 26.9403], [84.9627, 26.9604], [84.8648, 26.9843], [84.8547, 27.0083], [84.8297, 27.0196], [84.8087, 27.0181], [84.7938, 26.996], [84.7734, 27.0177], [84.7568, 27.0029], [84.6428, 27.0465], [84.6472, 27.0759], [84.6754, 27.1015], [84.6864, 27.1593], [84.6755, 27.1716], [84.6896, 27.2235], [84.6228, 27.3356], [84.4841, 27.3638], [84.5041, 27.3812], [84.5398, 27.3863], [84.5347, 27.4018], [84.5464, 27.4068], [84.5324, 27.4142], [84.548, 27.4178], [84.5653, 27.4632]]]}}, {"type": "Feature", "properties": {"NAME_EN": "Bagmati", "PROVINCE": 3}, "geometry": {"type": "Polygon", "coordinates": [[[86.5156, 27.9566], [86.5217, 27.9404], [86.5487, 27.9289], [86.5545, 27.861], [86.5404, 27.8149], [86.5671, 27.804], [86.5728, 27.7546], [86.541, 27.7029], [86.538, 27.6703], [86.4925, 27.6137], [86.4348, 27.6103], [86.3763, 27.5681], [86.3549, 27.5249], [86.2641, 27.4565], [86.2221, 27.3825], [86.2157, 27.3339], [86.2402, 27.2883], [86.2044, 27.2497], [86.2292, 27.2374], [86.2671, 27.26], [86.2956, 27.2382], [86.341, 27.229], [86.3427, 27.2044], [86.3899, 27.1799], [86.3682, 27.1409], [86.3437, 27.1473], [86.3245, 27.11], [86.3064, 27.1089], [86.3624, 27.099], [86.3458, 27.0683], [86.3792, 27.0346], [86.3657, 26.9816], [86.3537, 26.9651], [86.2835, 26.9492], [86.2597, 26.9191], [86.1874, 26.9825], [86.1059, 27.0154], [85.9912, 27.0252], [85.9441, 27.0921], [85.9381, 27.1214], [85.8827, 27.1463], [85.862, 27.1274], [85.8307, 27.1672], [85.8093, 27.1616], [85.7255, 27.1949], [85.6298, 27.1374], [85.501, 27.1436], [85.4895, 27.1546], [85.5009, 27.1758], [85.4726, 27.1619], [85.4529, 27.1684], [85.4466, 27.187], [85.3973, 27.1977], [85.3932, 27.2104], [85.3074, 27.2318], [85.2608, 27.227], [85.243, 27.2487], [85.1774, 27.2497], [85.1039, 27.3202], [85.0871, 27.3609], [85.0045, 27.3529], [84.9992, 27.3654], [84.9723, 27.3552], [84.9262, 27.3642], [84.8767, 27.3977], [84.8517, 27.3987], [84.8404, 27.4148], [84.8101, 27.416], [84.7938, 27.437], [84.7258, 27.4445], [84.7194, 27.4316], [84.6477, 27.4291], [84.6286, 27.4505], [84.5617, 27.463], [84.548, 27.4178], [84.5324, 27.4142], [84.5464, 27.4068], [84.5347, 27.4018], [84.5398, 27.3863], [84.5041, 27.3812], [84.4696, 27.3552], [84.4404, 27.3703], [84.2913, 27.3853], [84.2542, 27.4522], [84.2317, 27.4564], [84.2126, 27.4413], [84.2062, 27.4694], [84.1488, 27.4862], [84.1509, 27.5169], [84.0977, 27.5156], [84.0956, 27.49], [84.0706, 27.4817], [84.0518, 27.4427], [84.0227, 27.4331], [83.9968, 27.4461], [83.9465, 27.4412], [83.9341, 27.4485], [83.9446, 27.4658], [83.9388, 27.4916], [83.9694, 27.5161], [83.9565, 27.5271], [83.9301, 27.5131], [83.9188, 27.5331], [83.9245, 27.5446], [83.9692, 27.5506], [84.0254, 27.5372], [84.0498, 27.5563], [84.1147, 27.5533], [84.1353, 27.5846], [84.2059, 27.6384], [84.2585, 27.6515], [84.3431, 27.7021], [84.3781, 27.6813], [84.428, 27.7038], [84.4222, 27.7414], [84.4499, 27.7591], [84.472, 27.7541], [84.46, 27.7742], [84.4313, 27.7869], [84.4322, 27.8124], [84.4458, 27.8232], [84.518, 27.8168], [84.5208, 27.8315], [84.5552, 27.8358], [84.5588, 27.858], [84.59, 27.8797], [84.6081, 27.8716], [84.6249, 27.8797], [84.6851, 27.8103], [84.7319, 27.7957], [84.7646, 27.8186], [84.7748, 27.8085], [84.7824, 27.8139], [84.7657, 27.858], [84.7357, 27.8934], [84.7331, 27.9276], [84.7465, 27.9606], [84.8113, 28.0029], [84.8095, 28.038], [84.8444, 28.1167], [84.8694, 28.1205], [84.8924, 28.1], [84.9213, 28.1059], [84.9288, 28.1263], [84.9572, 28.1272], [84.9735, 28.1911], [84.9621, 28.2127], [85.0008, 28.2524], [85.0269, 28.2615], [85.0467, 28.3259], [85.0805, 28.3459], [85.1822, 28.3245], [85.204, 28.34], [85.2729, 28.2878], [85.3398, 28.3039], [85.3483, 28.2885], [85.3775, 28.2787], [85.4124, 28.3089], [85.4154, 28.3271], [85.5065, 28.334], [85.6006, 28.3044], [85.6087, 28.2569], [85.6607, 28.303], [85.6537, 28.3165], [85.6665, 28.3486], [85.6862, 28.347], [85.6843, 28.3827], [85.7115, 28.3863], [85.7243, 28.3734], [85.7496, 28.2374], [85.7764, 28.2086], [85.8485, 28.1842], [85.8724, 28.1429], [85.8701, 28.1238], [85.8981, 28.1091], [85.9014, 28.0535], [85.9771, 27.9967], [85.9483, 27.9421], [85.9993, 27.912], [86.0648, 27.8998], [86.0674, 27.9113], [86.124, 27.9276], [86.0794, 28.0204], [86.0949, 28.0619], [86.0831, 28.0914], [86.1241, 28.0953], [86.1434, 28.1273], [86.1773, 28.1428], [86.1741, 28.169], [86.1867, 28.1742], [86.2198, 28.1117], [86.2225, 28.0958], [86.2043, 28.0836], [86.233, 27.9744], [86.2888, 27.9784], [86.3188, 27.9479], [86.3353, 27.9651], [86.3484, 27.9376], [86.3813, 27.9379], [86.4108, 27.9066], [86.4425, 27.9057], [86.4699, 27.93], [86.4694, 27.9462], [86.5156, 27.9566]]]}}, {"type": "Feature", "properties": {"NAME_EN": "Gandaki", "PROVINCE": 4}, "geometry": {"type": "Polygon", "coordinates": [[[85.108, 28.3466], [85.0805, 28.3459], [85.0467, 28.3259], [85.0269, 28.2615], [84.9647, 28.2174], [84.9734, 28.1891], [84.9572, 28.1272], [84.9288, 28.1263], [84.9213, 28.1059], [84.8924, 28.1], [84.8694, 28.1205], [84.8444, 28.1167], [84.8095, 28.038], [84.8113, 28.0029], [84.7465, 27.9606], [84.7331, 27.9276], [84.7357, 27.8934], [84.7824, 27.8139], [84.7601, 27.8169], [84.7319, 27.7957], [84.6851, 27.8103], [84.6613, 27.8287], [84.6607, 27.849], [84.6199, 27.8805], [84.5805, 27.8744], [84.5588, 27.858], [84.5552, 27.8358], [84.5208, 27.8315], [84.518, 27.8168], [84.4458, 27.8232], [84.4322, 27.8124], [84.4313, 27.7869], [84.46, 27.7742], [84.472, 27.7541], [84.4499, 27.7591], [84.4222, 27.7414], [84.428, 27.7038], [84.3781, 27.6813], [84.3431, 27.7021], [84.2585, 27.6515], [84.2059, 27.6384], [84.1353, 27.5846], [84.1147, 27.5533], [84.0498, 27.5563], [84.0312, 27.5373], [83.9692, 27.5506], [83.9245, 27.5446], [83.9256, 27.5148], [83.9565, 27.5271], [83.9687, 27.5098], [83.9388, 27.4916], [83.9446, 27.4658], [83.935, 27.4509], [83.8956, 27.4378], [83.8748, 27.4897], [83.8973, 27.5003], [83.8757, 27.5107], [83.8821, 27.5273], [83.8507, 27.5591], [83.8368, 27.5463], [83.8362, 27.5858], [83.8082, 27.5887], [83.7899, 27.6067], [83.8052, 27.6209], [83.8119, 27.6624], [83.7252, 27.6725], [83.6953, 27.662], [83.7045, 27.6821], [83.682, 27.721], [83.7295, 27.7096], [83.7823, 27.7251], [83.8463, 27.7095], [83.8453, 27.7351], [83.9242, 27.7269], [83.952, 27.7467], [83.9859, 27.7481], [84.0247, 27.8183], [84.0282, 27.8565], [83.9993, 27.8551], [83.9943, 27.8663], [83.941, 27.8774], [83.9246, 27.8683], [83.8774, 27.8884], [83.8578, 27.8735], [83.846, 27.8819], [83.8455, 27.8685], [83.8064, 27.8735], [83.7623, 27.91], [83.7428, 27.9002], [83.7205, 27.9189], [83.6835, 27.9164], [83.6757, 27.9275], [83.655, 27.9025], [83.6333, 27.9001], [83.6247, 27.9263], [83.5746, 27.9303], [83.571, 27.9431], [83.5483, 27.9281], [83.531, 27.9392], [83.5241, 27.9242], [83.5091, 27.9408], [83.5059, 27.9286], [83.4839, 27.9227], [83.4403, 27.9328], [83.481, 27.9805], [83.531, 27.9648], [83.5768, 27.9744], [83.6033, 27.9973], [83.5968, 28.0203], [83.5616, 28.0358], [83.5612, 28.0632], [83.5807, 28.0775], [83.5545, 28.1168], [83.5104, 28.127], [83.4857, 28.1134], [83.4737, 28.1323], [83.4237, 28.1259], [83.3527, 28.1978], [83.2739, 28.1876], [83.1854, 28.2702], [83.1676, 28.2581], [83.1554, 28.2708], [83.1308, 28.2502], [83.0958, 28.256], [83.0969, 28.2774], [83.0612, 28.3178], [83.0034, 28.3332], [82.9801, 28.3594], [82.9548, 28.3602], [82.9436, 28.3985], [82.9159, 28.4035], [82.9142, 28.4344], [82.8863, 28.4525], [82.8789, 28.4755], [82.9121, 28.4797], [82.8776, 28.5148], [82.9141, 28.5276], [82.9218, 28.5673], [82.9738, 28.5423], [82.9857, 28.5699], [82.9528, 28.5992], [82.9784, 28.6291], [83.0428, 28.63], [83.0575, 28.6201], [83.1159, 28.6315], [83.1187, 28.6726], [83.1391, 28.6754], [83.1524, 28.701], [83.1454, 28.7472], [83.21, 28.732], [83.2293, 28.7429], [83.2769, 28.722], [83.3247, 28.7378], [83.362, 28.7342], [83.3885, 28.7631], [83.4835, 28.7829], [83.4817, 28.8447], [83.5018, 28.8462], [83.4995, 28.8773], [83.579, 28.9551], [83.5921, 28.9837], [83.6145, 28.9869], [83.6126, 29.0362], [83.6313, 29.0665], [83.6164, 29.0985], [83.6789, 29.1251], [83.6559, 29.204], [83.6842, 29.2132], [83.7113, 29.2446], [83.7972, 29.2501], [83.7945, 29.2775], [83.8128, 29.3021], [83.8491, 29.2981], [83.9048, 29.3258], [83.9411, 29.3164], [83.9649, 29.3311], [83.9992, 29.3148], [83.9898, 29.2985], [84.0265, 29.2856], [84.0439, 29.3009], [84.0701, 29.2852], [84.1003, 29.2902], [84.1218, 29.2737], [84.1163, 29.2442], [84.201, 29.2401], [84.1997, 29.214], [84.1623, 29.1853], [84.1763, 29.1297], [84.2006, 29.1245], [84.1861, 29.0808], [84.1897, 29.047], [84.2208, 29.0536], [84.2498, 29.0361], [84.2205, 28.9157], [84.2259, 28.894], [84.266, 28.8977], [84.3236, 28.8627], [84.3446, 28.8722], [84.4086, 28.8537], [84.4006, 28.8303], [84.4353, 28.8206], [84.4321, 28.8015], [84.4459, 28.7826], [84.4366, 28.7694], [84.4612, 28.7512], [84.4896, 28.7354], [84.5567, 28.7522], [84.5717, 28.7352], [84.6263, 28.7365], [84.6683, 28.6835], [84.705, 28.6707], [84.6948, 28.6365], [84.8569, 28.5708], [84.901, 28.5933], [84.9453, 28.5947], [84.949, 28.5804], [84.9808, 28.5904], [85.0089, 28.6371], [85.0586, 28.6825], [85.0839, 28.671], [85.1154, 28.6866], [85.1591, 28.6434], [85.1885, 28.6409], [85.1973, 28.6209], [85.1737, 28.5975], [85.1916, 28.5691], [85.187, 28.5355], [85.1661, 28.5321], [85.1529, 28.4906], [85.1178, 28.4851], [85.0995, 28.4569], [85.1143, 28.4432], [85.1264, 28.391], [85.108, 28.3466]]]}}, {"type": "Feature", "properties": {"NAME_EN": "Lumbini", "PROVINCE": 5}, "geometry": {"type": "Polygon", "coordinates": [[[82.6726, 28.8523], [82.6976, 28.8646], [82.7437, 28.8457], [82.7678, 28.8085], [82.8191, 28.8312], [82.9492, 28.8289], [82.9829, 28.8006], [83.0812, 28.7861], [83.1156, 28.7435], [83.1474, 28.747], [83.1545, 28.701], [83.141, 28.6753], [83.1209, 28.6732], [83.1179, 28.6314], [83.0595, 28.62], [83.0448, 28.6298], [82.9789, 28.6288], [82.9546, 28.598], [82.9874, 28.5707], [82.9824, 28.5507], [82.9758, 28.5422], [82.9184, 28.5645], [82.916, 28.5275], [82.8793, 28.5153], [82.9139, 28.4787], [82.8812, 28.4762], [82.8848, 28.4611], [82.9163, 28.4341], [82.9181, 28.4026], [82.9456, 28.3983], [82.9567, 28.36], [82.982, 28.3593], [83.0062, 28.3325], [83.0636, 28.3175], [83.099, 28.277], [83.0955, 28.2568], [83.1328, 28.25], [83.1575, 28.2707], [83.1698, 28.2578], [83.1868, 28.2706], [83.2757, 28.1875], [83.3575, 28.1973], [83.4253, 28.1251], [83.4757, 28.1322], [83.4878, 28.1132], [83.5124, 28.1268], [83.5563, 28.117], [83.5827, 28.0774], [83.563, 28.0642], [83.5636, 28.0356], [83.5984, 28.0205], [83.6053, 27.9971], [83.5796, 27.9742], [83.5331, 27.9646], [83.4849, 27.9815], [83.4423, 27.9325], [83.4859, 27.9225], [83.5079, 27.9284], [83.5107, 27.9406], [83.5261, 27.9239], [83.533, 27.939], [83.5505, 27.9279], [83.573, 27.9429], [83.5766, 27.9301], [83.6282, 27.9259], [83.6363, 27.8992], [83.657, 27.9023], [83.6783, 27.9272], [83.6851, 27.9162], [83.7212, 27.92], [83.7451, 27.8999], [83.7643, 27.9098], [83.8093, 27.873], [83.8476, 27.8683], [83.8473, 27.8814], [83.8604, 27.8734], [83.8796, 27.8882], [83.9268, 27.868], [83.9413, 27.8779], [83.9964, 27.8661], [84.0024, 27.8545], [84.0306, 27.8562], [84.0288, 27.8204], [84.0024, 27.7884], [83.992, 27.749], [83.9526, 27.7473], [83.9262, 27.7266], [83.847, 27.7348], [83.8483, 27.7093], [83.7844, 27.7249], [83.7306, 27.7089], [83.7163, 27.7155], [83.6843, 27.7207], [83.6791, 27.7184], [83.7067, 27.6826], [83.6974, 27.6613], [83.7272, 27.6723], [83.8139, 27.6622], [83.8073, 27.6207], [83.7926, 27.6049], [83.8102, 27.5885], [83.838, 27.5858], [83.8382, 27.5448], [83.8527, 27.5588], [83.8845, 27.5277], [83.878, 27.51], [83.8998, 27.4986], [83.8768, 27.4891], [83.8976, 27.4376], [83.8694, 27.427], [83.8749, 27.3922], [83.9078, 27.3884], [83.8899, 27.3582], [83.8647, 27.3465], [83.6169, 27.4693], [83.3909, 27.4795], [83.404, 27.4574], [83.3863, 27.436], [83.4116, 27.4125], [83.3612, 27.3431], [83.3068, 27.3312], [83.2747, 27.3527], [83.2743, 27.3834], [83.2197, 27.4171], [83.1899, 27.4542], [83.0361, 27.4487], [82.9562, 27.4678], [82.9314, 27.501], [82.7374, 27.5025], [82.7514, 27.5227], [82.7401, 27.5519], [82.7578, 27.5876], [82.7369, 27.6095], [82.7382, 27.643], [82.7137, 27.6649], [82.7202, 27.6873], [82.71, 27.7217], [82.6826, 27.7136], [82.6662, 27.7219], [82.5431, 27.6856], [82.4507, 27.6785], [82.2102, 27.843], [82.1559, 27.8661], [82.1519, 27.8578], [82.1252, 27.8649], [82.0728, 27.9225], [81.9701, 27.9288], [81.9273, 27.8757], [81.928, 27.8596], [81.8873, 27.8569], [81.8346, 27.8979], [81.8068, 27.9033], [81.7002, 27.9881], [81.6262, 28.0013], [81.4802, 28.0824], [81.4858, 28.1182], [81.4517, 28.1408], [81.4477, 28.1612], [81.3765, 28.1769], [81.3731, 28.1423], [81.3198, 28.1335], [81.3297, 28.1482], [81.3036, 28.166], [81.323, 28.1687], [81.3224, 28.1972], [81.2345, 28.2889], [81.2363, 28.3246], [81.2152, 28.3582], [81.0816, 28.3849], [81.0609, 28.4079], [81.0931, 28.4577], [81.1619, 28.5013], [81.1698, 28.5241], [81.2507, 28.5943], [81.2893, 28.6479], [81.2871, 28.6732], [81.3091, 28.6729], [81.3229, 28.6675], [81.312, 28.651], [81.3181, 28.6367], [81.4027, 28.6068], [81.4397, 28.5594], [81.5079, 28.5282], [81.5405, 28.4946], [81.5591, 28.4949], [81.6602, 28.4153], [81.6761, 28.4175], [81.7184, 28.384], [81.7685, 28.37], [81.7469, 28.3131], [81.789, 28.2946], [81.7954, 28.2737], [81.8103, 28.2829], [81.8454, 28.2719], [81.8665, 28.2497], [81.8627, 28.2386], [81.8847, 28.2434], [81.9234, 28.2268], [81.9285, 28.2093], [81.9645, 28.1943], [82.0094, 28.1509], [82.044, 28.2301], [82.1026, 28.2589], [82.1457, 28.237], [82.1713, 28.2514], [82.2459, 28.2378], [82.3023, 28.2458], [82.3143, 28.2233], [82.3394, 28.2234], [82.369, 28.1897], [82.3947, 28.1891], [82.3987, 28.1688], [82.4087, 28.2205], [82.4392, 28.2465], [82.4055, 28.2621], [82.3654, 28.3194], [82.3855, 28.3727], [82.3655, 28.3882], [82.3531, 28.4238], [82.3785, 28.4302], [82.3757, 28.4482], [82.4075, 28.4781], [82.4201, 28.5286], [82.4648, 28.5212], [82.4949, 28.5399], [82.4942, 28.5526], [82.5232, 28.5538], [82.5553, 28.5815], [82.5825, 28.586], [82.5813, 28.6136], [82.5102, 28.6276], [82.4877, 28.6405], [82.4918, 28.6592], [82.5033, 28.6676], [82.5566, 28.6439], [82.6014, 28.6696], [82.6026, 28.6847], [82.6178, 28.6897], [82.6171, 28.7102], [82.6033, 28.7428], [82.5679, 28.7438], [82.5638, 28.7679], [82.6216, 28.809], [82.6156, 28.8265], [82.645, 28.8664], [82.6726, 28.8523]]]}}, {"type": "Feature", "properties": {"NAME_EN": "Karnali", "PROVINCE": 6}, "geometry": {"type": "Polygon", "coordinates": [[[81.6281, 30.4459], [81.7287, 30.4114], [81.753, 30.3888], [81.8695, 30.3774], [81.9163, 30.35], [81.9413, 30.3476], [81.9512, 30.359], [81.9903, 30.3208], [82.014, 30.3292], [82.0182, 30.3442], [82.0579, 30.3326], [82.0754, 30.3588], [82.1068, 30.3496], [82.1302, 30.3022], [82.1113, 30.2772], [82.12, 30.2589], [82.1003, 30.2392], [82.1295, 30.2255], [82.141, 30.1989], [82.1864, 30.1908], [82.1839, 30.1609], [82.2074, 30.1537], [82.2007, 30.1363], [82.1727, 30.122], [82.1884, 30.111], [82.1678, 30.0814], [82.1738, 30.0652], [82.2331, 30.0649], [82.2486, 30.0752], [82.2832, 30.0612], [82.3004, 30.0379], [82.336, 30.0469], [82.3649, 30.0104], [82.3798, 30.0112], [82.3779, 30.0264], [82.3974, 30.024], [82.4341, 29.989], [82.4781, 29.9737], [82.5012, 29.946], [82.5317, 29.9712], [82.5513, 29.9632], [82.6043, 29.8891], [82.6442, 29.8705], [82.6229, 29.8373], [82.6992, 29.8553], [82.7286, 29.8353], [82.7391, 29.8135], [82.6961, 29.7912], [82.692, 29.7631], [82.7542, 29.7656], [82.7649, 29.7312], [82.8199, 29.7211], [82.8284, 29.6899], [82.8627, 29.6846], [82.8929, 29.7014], [82.9375, 29.7055], [82.9504, 29.6916], [82.9429, 29.6741], [82.9577, 29.6626], [83.0106, 29.6726], [83.0877, 29.6027], [83.1224, 29.6286], [83.1335, 29.6179], [83.1521, 29.6238], [83.1672, 29.616], [83.1611, 29.5964], [83.182, 29.593], [83.1988, 29.6111], [83.2201, 29.6055], [83.2165, 29.5893], [83.234, 29.5778], [83.2801, 29.5688], [83.2842, 29.5575], [83.2574, 29.5568], [83.2695, 29.5074], [83.2841, 29.4987], [83.3178, 29.5089], [83.3465, 29.4948], [83.3444, 29.4658], [83.3683, 29.45], [83.3735, 29.4285], [83.4164, 29.4208], [83.4283, 29.4024], [83.4139, 29.3803], [83.4172, 29.359], [83.4444, 29.3449], [83.4403, 29.3088], [83.4647, 29.2766], [83.4897, 29.28], [83.4936, 29.2648], [83.5169, 29.2558], [83.5199, 29.2204], [83.5381, 29.2038], [83.5741, 29.2025], [83.5781, 29.1801], [83.6123, 29.1807], [83.6355, 29.1584], [83.6595, 29.1761], [83.6785, 29.1472], [83.6825, 29.1234], [83.6623, 29.1244], [83.652, 29.1044], [83.6177, 29.0983], [83.6336, 29.0649], [83.6146, 29.0359], [83.6171, 28.9876], [83.5941, 28.9836], [83.5821, 28.9561], [83.5015, 28.8771], [83.5039, 28.8461], [83.4824, 28.8377], [83.4855, 28.7828], [83.3905, 28.763], [83.364, 28.734], [83.3276, 28.7378], [83.2789, 28.7218], [83.2313, 28.7428], [83.2119, 28.7318], [83.1576, 28.7475], [83.1156, 28.7435], [83.0812, 28.7861], [82.9829, 28.8006], [82.9492, 28.8289], [82.8191, 28.8312], [82.7678, 28.8085], [82.7437, 28.8457], [82.6976, 28.8646], [82.6714, 28.8523], [82.6461, 28.8671], [82.6156, 28.8265], [82.6216, 28.809], [82.5638, 28.7677], [82.5679, 28.7438], [82.6033, 28.7428], [82.6178, 28.6897], [82.5566, 28.6439], [82.5033, 28.6676], [82.4918, 28.6592], [82.4877, 28.6405], [82.5102, 28.6276], [82.5813, 28.6136], [82.5825, 28.586], [82.5553, 28.5815], [82.5232, 28.5538], [82.4942, 28.5526], [82.4949, 28.5399], [82.4648, 28.5212], [82.4201, 28.5286], [82.4075, 28.4781], [82.3757, 28.4482], [82.3785, 28.4302], [82.3523, 28.4218], [82.3855, 28.3727], [82.3654, 28.3194], [82.4055, 28.2621], [82.4392, 28.2465], [82.4087, 28.2205], [82.3987, 28.1688], [82.3947, 28.1891], [82.369, 28.1897], [82.3394, 28.2234], [82.3143, 28.2233], [82.3023, 28.2458], [82.2459, 28.2378], [82.1713, 28.2514], [82.1457, 28.237], [82.1026, 28.2589], [82.044, 28.2301], [82.0094, 28.1509], [81.9645, 28.1943], [81.9285, 28.2093], [81.9234, 28.2268], [81.8847, 28.2434], [81.8627, 28.2386], [81.8665, 28.2497], [81.8454, 28.2719], [81.8103, 28.2829], [81.7954, 28.2737], [81.789, 28.2946], [81.7469, 28.3131], [81.7685, 28.37], [81.7184, 28.384], [81.6761, 28.4175], [81.6602, 28.4153], [81.5591, 28.4949], [81.5405, 28.4946], [81.5079, 28.5282], [81.4397, 28.5594], [81.4027, 28.6068], [81.3178, 28.6369], [81.312, 28.651], [81.3229, 28.6675], [81.2871, 28.6732], [81.2684, 28.7039], [81.2742, 28.727], [81.2578, 28.7299], [81.2495, 28.7796], [81.2276, 28.7951], [81.2438, 28.8108], [81.2083, 28.862], [81.1969, 28.833], [81.2051, 28.8167], [81.1758, 28.8349], [81.1547, 28.8303], [81.1451, 28.873], [81.1041, 28.8447], [81.074, 28.8767], [81.0532, 28.8768], [81.0229, 28.9198], [80.9827, 28.9387], [81.0516, 28.9782], [81.121, 28.9634], [81.1705, 28.9214], [81.2059, 28.908], [81.2474, 28.9151], [81.2679, 28.9026], [81.3038, 28.9257], [81.357, 28.8897], [81.4159, 28.9141], [81.4335, 28.9106], [81.4667, 28.8936], [81.465, 28.8527], [81.4923, 28.8409], [81.5241, 28.8032], [81.5172, 28.7803], [81.5368, 28.7612], [81.5222, 28.749], [81.5831, 28.7591], [81.5816, 28.78], [81.5587, 28.7975], [81.5107, 28.8897], [81.4464, 28.9404], [81.4457, 28.9585], [81.4258, 28.9663], [81.4119, 28.9969], [81.4196, 29.0213], [81.4711, 29.0781], [81.5673, 29.1261], [81.5264, 29.1527], [81.5009, 29.1517], [81.4891, 29.1729], [81.4883, 29.2254], [81.5014, 29.2388], [81.493, 29.2616], [81.4698, 29.2718], [81.5097, 29.3146], [81.5257, 29.3151], [81.5602, 29.3579], [81.5688, 29.3478], [81.5781, 29.3628], [81.6155, 29.3707], [81.6455, 29.3555], [81.6502, 29.3211], [81.7415, 29.3339], [81.7622, 29.3857], [81.7912, 29.389], [81.7996, 29.4066], [81.8057, 29.4751], [81.7899, 29.5], [81.7643, 29.5053], [81.7824, 29.5091], [81.7947, 29.5306], [81.8004, 29.5766], [81.7756, 29.6058], [81.7387, 29.6066], [81.7176, 29.6208], [81.7012, 29.6421], [81.6989, 29.6783], [81.7288, 29.7341], [81.7414, 29.7922], [81.7822, 29.8071], [81.8014, 29.9006], [81.7818, 29.9111], [81.7178, 29.9094], [81.6896, 29.9491], [81.6669, 29.9403], [81.6474, 29.9482], [81.6147, 29.9432], [81.6044, 29.9302], [81.5867, 29.9369], [81.5187, 29.9228], [81.5058, 29.8929], [81.4725, 29.8898], [81.4582, 29.9012], [81.4546, 29.949], [81.4705, 29.9637], [81.4649, 29.9956], [81.4031, 30.0228], [81.3837, 30.0072], [81.3588, 30.0106], [81.2737, 30.0453], [81.2913, 30.0744], [81.2923, 30.1126], [81.258, 30.1466], [81.3066, 30.1643], [81.3339, 30.1533], [81.3982, 30.209], [81.3938, 30.2506], [81.4184, 30.2817], [81.4014, 30.2816], [81.4037, 30.2931], [81.4251, 30.3051], [81.3982, 30.3235], [81.4078, 30.3532], [81.3971, 30.368], [81.4311, 30.3834], [81.4025, 30.3963], [81.4098, 30.4211], [81.4468, 30.416], [81.4913, 30.3813], [81.5536, 30.3699], [81.5626, 30.4281], [81.6086, 30.4122], [81.6281, 30.4459]]]}}, {"type": "Feature", "properties": {"NAME_EN": "Sudurpashchim", "PROVINCE": 7}, "geometry": {"type": "Polygon", "coordinates": [[[80.608, 30.4731], [80.6897, 30.4177], [80.7079, 30.4207], [80.7356, 30.4039], [80.7884, 30.3576], [80.804, 30.3276], [80.9046, 30.3025], [80.9375, 30.2651], [80.9912, 30.2707], [81.0337, 30.2494], [81.0276, 30.2269], [81.0474, 30.2076], [81.0353, 30.197], [81.0848, 30.1484], [81.083, 30.1004], [81.1105, 30.0862], [81.0926, 30.0542], [81.1259, 30.0202], [81.1858, 30.0108], [81.2057, 30.022], [81.2335, 30.0077], [81.2554, 30.0197], [81.2392, 30.0319], [81.2737, 30.0453], [81.3784, 30.0065], [81.4144, 30.0186], [81.4649, 29.9956], [81.4705, 29.9637], [81.4546, 29.949], [81.4582, 29.9012], [81.4725, 29.8898], [81.5058, 29.8929], [81.5187, 29.9228], [81.5867, 29.9369], [81.6044, 29.9302], [81.6147, 29.9432], [81.6474, 29.9482], [81.6669, 29.9403], [81.6896, 29.9491], [81.7178, 29.9094], [81.7818, 29.9111], [81.8014, 29.9006], [81.7822, 29.8071], [81.7414, 29.7922], [81.7288, 29.7341], [81.6989, 29.6783], [81.7012, 29.6421], [81.7176, 29.6208], [81.7387, 29.6066], [81.7756, 29.6058], [81.8004, 29.5766], [81.7947, 29.5306], [81.7824, 29.5091], [81.7643, 29.5053], [81.7899, 29.5], [81.8057, 29.4751], [81.7996, 29.4066], [81.7912, 29.389], [81.7622, 29.3857], [81.7415, 29.3339], [81.6502, 29.3211], [81.6455, 29.3555], [81.6155, 29.3707], [81.5781, 29.3628], [81.5688, 29.3478], [81.5602, 29.3579], [81.5257, 29.3151], [81.5097, 29.3146], [81.4698, 29.2718], [81.493, 29.2616], [81.5014, 29.2388], [81.4883, 29.2254], [81.4891, 29.1729], [81.5009, 29.1517], [81.5264, 29.1527], [81.5673, 29.1261], [81.4711, 29.0781], [81.4196, 29.0213], [81.4119, 28.9969], [81.4258, 28.9663], [81.4457, 28.9585], [81.4464, 28.9404], [81.5107, 28.8897], [81.5587, 28.7975], [81.5816, 28.78], [81.5816, 28.7569], [81.5222, 28.749], [81.5368, 28.7612], [81.5172, 28.7803], [81.5241, 28.8032], [81.4923, 28.8409], [81.465, 28.8527], [81.4667, 28.8936], [81.4335, 28.9106], [81.4159, 28.9141], [81.357, 28.8897], [81.3038, 28.9257], [81.2679, 28.9026], [81.2474, 28.9151], [81.2059, 28.908], [81.1705, 28.9214], [81.121, 28.9634], [81.0516, 28.9782], [81.0225, 28.9528], [81.005, 28.9571], [80.9834, 28.9402], [81.0229, 28.9198], [81.0532, 28.8768], [81.074, 28.8767], [81.1041, 28.8447], [81.1451, 28.873], [81.1547, 28.8303], [81.1758, 28.8349], [81.2051, 28.8167], [81.1969, 28.833], [81.2083, 28.862], [81.2438, 28.8108], [81.2276, 28.7951], [81.2495, 28.7796], [81.2578, 28.7299], [81.2742, 28.727], [81.2682, 28.7041], [81.2829, 28.695], [81.2892, 28.6634], [81.2504, 28.594], [81.1698, 28.5241], [81.1619, 28.5013], [81.0923, 28.4568], [81.0613, 28.4098], [81.0691, 28.3944], [81.0228, 28.4103], [81.0355, 28.4279], [81.0147, 28.4382], [81.0192, 28.4516], [80.967, 28.4377], [80.9816, 28.4552], [80.9535, 28.4475], [80.934, 28.4585], [80.9443, 28.4684], [80.9323, 28.4576], [80.9162, 28.4677], [80.9174, 28.4576], [80.9032, 28.4856], [80.9103, 28.4975], [80.8978, 28.5056], [80.8633, 28.5041], [80.8673, 28.4895], [80.8462, 28.4953], [80.8172, 28.5206], [80.7907, 28.5243], [80.7912, 28.5433], [80.7712, 28.5496], [80.7697, 28.5656], [80.7163, 28.5678], [80.692, 28.587], [80.6974, 28.6033], [80.6791, 28.6043], [80.6693, 28.6418], [80.6529, 28.6339], [80.6133, 28.6392], [80.6079, 28.6523], [80.5914, 28.6477], [80.5993, 28.6559], [80.5819, 28.6612], [80.5921, 28.6797], [80.5704, 28.6879], [80.5415, 28.6906], [80.5052, 28.6652], [80.5324, 28.5722], [80.5193, 28.5518], [80.4828, 28.5853], [80.4699, 28.5833], [80.4533, 28.6286], [80.3624, 28.6355], [80.3276, 28.6663], [80.319, 28.6998], [80.2793, 28.7099], [80.2579, 28.7293], [80.2668, 28.7435], [80.2531, 28.7573], [80.2177, 28.7553], [80.1198, 28.8288], [80.0767, 28.8243], [80.0664, 28.8373], [80.0601, 28.9164], [80.1019, 28.9864], [80.1196, 28.9816], [80.1373, 29.0073], [80.1262, 29.013], [80.1382, 29.0589], [80.1302, 29.061], [80.1461, 29.103], [80.1851, 29.1371], [80.235, 29.1184], [80.2733, 29.1421], [80.2596, 29.1873], [80.2425, 29.2024], [80.25, 29.221], [80.2889, 29.1952], [80.299, 29.2051], [80.2924, 29.2316], [80.3186, 29.3148], [80.2818, 29.3462], [80.2763, 29.393], [80.2433, 29.4116], [80.2446, 29.4438], [80.2779, 29.4585], [80.3042, 29.4531], [80.2883, 29.4769], [80.3008, 29.4906], [80.3148, 29.4845], [80.3156, 29.499], [80.3513, 29.5189], [80.3597, 29.5325], [80.3435, 29.5403], [80.3444, 29.5529], [80.3805, 29.5613], [80.4097, 29.5954], [80.4219, 29.6391], [80.3862, 29.6744], [80.3675, 29.7478], [80.3992, 29.7593], [80.4086, 29.7945], [80.4365, 29.806], [80.4951, 29.7955], [80.509, 29.8231], [80.5544, 29.8504], [80.576, 29.9235], [80.5971, 29.9531], [80.6316, 29.9652], [80.6797, 29.9589], [80.7211, 30.0002], [80.7494, 30.0066], [80.763, 30.0495], [80.8075, 30.0897], [80.8425, 30.0994], [80.846, 30.1155], [80.8797, 30.1292], [80.8729, 30.1613], [80.7637, 30.279], [80.7585, 30.3057], [80.6679, 30.3448], [80.6135, 30.4456], [80.5751, 30.4424], [80.541, 30.4153], [80.5272, 30.4253], [80.5689, 30.4676], [80.608, 30.4731]]]}}]}